NORAD_CAT_ID,OBJECT_NAME,OBJECT_TYPE,EPOCH,MEAN_MOTION,ECCENTRICITY,INCLINATION,RA_OF_ASC_NODE,ARG_OF_PERICENTER,MEAN_ANOMALY,BSTAR,MEAN_MOTION_DOT,MEAN_MOTION_DDOT,TLE_LINE0,TLE_LINE1,TLE_LINE2,SEMIMAJOR_AXIS,PERIOD,APOGEE,PERIGEE,DECAYED
53427.0,STARLINK-4541,PAYLOAD,2023-02-28 05:56:20,15.08871378,0.0001397,53.2173,36.6485,91.7788,268.3364,0.0009803,0.00015361,0.0,0 STARLINK-4541,1 53427U 22097AR  23059.24746473  .00015361  00000-0  98030-3 0  9996,2 53427  53.2173  36.6485 0001397  91.7788 268.3364 15.08871378 31280,6917.784,95.436,540.616,538.683,0.0
53427.0,STARLINK-4541,PAYLOAD,2023-02-28 10:42:29,15.0888053,0.0001536,53.2168,35.7551,92.9194,267.1974,0.0011423,0.00017959,0.0,0 STARLINK-4541,1 53427U 22097AR  23059.44617953  .00017959  00000-0  11423-2 0  9993,2 53427  53.2168  35.7551 0001536  92.9194 267.1974 15.08880530 31797,6917.757,95.435,540.684,538.559,0.0
53427.0,STARLINK-4541,PAYLOAD,2023-03-01 04:11:46,15.08797514,0.0001178,53.2166,32.4863,67.8897,292.2221,0.00094794,0.00014813,0.0,0 STARLINK-4541,1 53427U 22097AR  23060.17484815  .00014813  00000-0  94794-3 0  9993,2 53427  53.2166  32.4863 0001178  67.8897 292.2221 15.08797514 31421,6918.01,95.44,540.69,539.06,0.0
53427.0,STARLINK-4541,PAYLOAD,2023-03-01 15:19:29,15.08840722,0.0001349,53.2169,30.4049,67.762,292.3515,0.0024964,0.00039667,0.0,0 STARLINK-4541,1 53427U 22097AR  23060.63853295  .00039667  00000-0  24964-2 0  9991,2 53427  53.2169  30.4049 0001349  67.7620 292.3515 15.08840722 31495,6917.878,95.438,540.676,538.81,0.0
53427.0,STARLINK-4541,PAYLOAD,2023-03-01 21:41:01,15.08866719,0.0001322,53.2169,29.2154,64.9379,295.1751,0.0025878,0.00041168,0.0,0 STARLINK-4541,1 53427U 22097AR  23060.90348933  .00041168  00000-0  25878-2 0  9993,2 53427  53.2169  29.2154 0001322  64.9379 295.1751 15.08866719 32015,6917.799,95.436,540.578,538.749,0.0
53427.0,STARLINK-4541,PAYLOAD,2023-03-02 04:02:33,15.08888788,0.0001346,53.217,28.026,65.1047,295.0085,0.0025847,0.00041143,0.0,0 STARLINK-4541,1 53427U 22097AR  23061.16844239  .00041143  00000-0  25847-2 0  9991,2 53427  53.2170  28.0260 0001346  65.1047 295.0085 15.08888788 32056,6917.731,95.434,540.527,538.665,0.0
53427.0,STARLINK-4541,PAYLOAD,2023-03-03 03:53:19,15.08874477,0.0001473,53.2175,23.564,88.4209,271.6952,0.00067488,0.00010479,0.0,0 STARLINK-4541,1 53427U 22097AR  23062.16202782  .00010479  00000-0  67488-3 0  9999,2 53427  53.2175  23.5640 0001473  88.4209 271.6952 15.08874477 31728,6917.775,95.435,540.659,538.621,0.0
53427.0,STARLINK-4541,PAYLOAD,2023-03-04 06:54:51,15.08890476,9.26e-05,53.2168,18.5088,78.3828,281.7268,0.0023869,0.00037957,0.0,0 STARLINK-4541,1 53427U 22097AR  23063.28809676  .00037957  00000-0  23869-2 0  9992,2 53427  53.2168  18.5088 0000926  78.3828 281.7268 15.08890476 31894,6917.726,95.434,540.232,538.951,0.0
53427.0,STARLINK-4541,PAYLOAD,2023-03-04 21:13:20,15.08821649,2.65e-05,53.2179,15.8324,85.0182,275.0841,0.00069032,0.0001071,0.0,0 STARLINK-4541,1 53427U 22097AR  23063.88426825  .00010710  00000-0  69032-3 0  9990,2 53427  53.2179  15.8324 0000265  85.0182 275.0841 15.08821649 31982,6917.936,95.439,539.985,539.618,0.0
53427.0,STARLINK-4541,PAYLOAD,2023-03-04 22:48:44,15.08827178,6.39e-05,53.2178,15.5355,125.0483,235.0569,0.00096691,0.00015129,0.0,0 STARLINK-4541,1 53427U 22097AR  23063.95050941  .00015129  00000-0  96691-3 0  9990,2 53427  53.2178  15.5355 0000639 125.0483 235.0569 15.08827178 32477,6917.92,95.438,540.227,539.343,0.0
53427.0,STARLINK-4541,PAYLOAD,2023-03-06 03:25:40,15.08869362,7.91e-05,53.2167,10.183,110.2554,249.8523,0.0023187,0.00036837,0.0,0 STARLINK-4541,1 53427U 22097AR  23065.14283350  .00036837  00000-0  23187-2 0  9993,2 53427  53.2167  10.1830 0000791 110.2554 249.8523 15.08869362 32179,6917.791,95.436,540.203,539.108,0.0
53427.0,STARLINK-4541,PAYLOAD,2023-03-06 19:19:32,15.08831185,0.0001423,53.217,7.2103,91.6502,268.4653,0.001855,0.00029351,0.0,0 STARLINK-4541,1 53427U 22097AR  23065.80524160  .00029351  00000-0  18550-2 0  9994,2 53427  53.2170   7.2103 0001423  91.6502 268.4653 15.08831185 32275,6917.907,95.438,540.757,538.788,0.0
53427.0,STARLINK-4541,PAYLOAD,2023-03-07 03:16:28,15.08836946,0.0001232,53.216,5.7215,92.5817,267.5316,0.00066684,0.0001034,0.0,0 STARLINK-4541,1 53427U 22097AR  23066.13644307  .00010340  00000-0  66684-3 0  9997,2 53427  53.2160   5.7215 0001232  92.5817 267.5316 15.08836946 32320,6917.89,95.438,540.607,538.902,0.0
53427.0,STARLINK-4541,PAYLOAD,2023-03-08 03:07:15,15.08857164,0.0002039,53.2162,1.2616,47.4528,312.6636,0.0010328,0.00016195,0.0,0 STARLINK-4541,1 53427U 22097AR  23067.13004520  .00016195  00000-0  10328-2 0  9992,2 53427  53.2162   1.2616 0002039  47.4528 312.6636 15.08857164 32470,6917.828,95.436,541.103,538.282,0.0
53427.0,STARLINK-4541,PAYLOAD,2023-03-08 19:01:07,15.08846544,0.0001154,53.2166,358.2872,84.5502,275.5622,0.00040672,6.192e-05,0.0,0 STARLINK-4541,1 53427U 22097AR  23067.79244386  .00006192  00000-0  40672-3 0  9992,2 53427  53.2166 358.2872 0001154  84.5502 275.5622 15.08846544 33051,6917.86,95.437,540.524,538.927,0.0
53427.0,STARLINK-4541,PAYLOAD,2023-03-08 23:47:16,15.08856427,0.0001088,53.2165,357.3966,82.6986,277.413,0.00084898,0.00013255,0.0,0 STARLINK-4541,1 53427U 22097AR  23067.99116255  .00013255  00000-0  84898-3 0  9993,2 53427  53.2165 357.3966 0001088  82.6986 277.4130 15.08856427 32601,6917.83,95.437,540.448,538.943,0.0
53427.0,STARLINK-4541,PAYLOAD,2023-03-09 02:58:02,15.08871303,0.000128,53.2171,356.8022,81.7465,278.3672,0.0016342,0.00025838,0.0,0 STARLINK-4541,1 53427U 22097AR  23068.12364105  .00025838  00000-0  16342-2 0  9996,2 53427  53.2171 356.8022 0001280  81.7465 278.3672 15.08871303 32624,6917.785,95.436,540.535,538.764,0.0
53427.0,STARLINK-4541,PAYLOAD,2023-03-10 01:13:26,15.08861207,0.0001453,53.2167,352.6403,74.9144,285.2009,0.0012457,0.00019604,0.0,0 STARLINK-4541,1 53427U 22097AR  23069.05099979  .00019604  00000-0  12457-2 0  9990,2 53427  53.2167 352.6403 0001453  74.9144 285.2009 15.08861207 32764,6917.816,95.436,540.686,538.675,0.0
53427.0,STARLINK-4541,PAYLOAD,2023-03-10 18:42:41,15.0883278,0.0001644,53.2175,349.3688,71.8855,288.2317,0.00054989,8.473e-05,0.0,0 STARLINK-4541,1 53427U 22097AR  23069.77964654  .00008473  00000-0  54989-3 0  9999,2 53427  53.2175 349.3688 0001644  71.8855 288.2317 15.08832780 32879,6917.902,95.438,540.905,538.63,0.0
53427.0,STARLINK-4541,PAYLOAD,2023-03-11 01:04:14,15.08823544,9.61e-05,53.2178,348.1801,87.0938,273.0164,0.00011981,1.619e-05,0.0,0 STARLINK-4541,1 53427U 22097AR  23070.04460939  .00001619  00000-0  11981-3 0  9998,2 53427  53.2178 348.1801 0000961  87.0938 273.0164 15.08823544 32913,6917.931,95.439,540.461,539.131,0.0
53427.0,STARLINK-4541,PAYLOAD,2023-03-11 23:19:38,15.08842223,0.000118,53.2161,344.0147,95.2666,264.846,0.00052079,8.011e-05,0.0,0 STARLINK-4541,1 53427U 22097AR  23070.97197162  .00008011  00000-0  52079-3 0  9991,2 53427  53.2161 344.0147 0001180  95.2666 264.8460 15.08842223 33054,6917.874,95.437,540.555,538.922,0.0
53427.0,STARLINK-4541,PAYLOAD,2023-03-12 23:10:25,15.08850117,0.0001308,53.2172,339.5572,100.0681,260.0458,0.00029938,4.481e-05,0.0,0 STARLINK-4541,1 53427U 22097AR  23071.96556757  .00004481  00000-0  29938-3 0  9995,2 53427  53.2172 339.5572 0001308 100.0681 260.0458 15.08850117 33204,6917.849,95.437,540.619,538.81,0.0
53427.0,STARLINK-4541,PAYLOAD,2023-03-13 21:25:49,15.08832612,0.000151,53.2167,335.3952,131.6181,228.494,-9.934e-05,-1.868e-05,0.0,0 STARLINK-4541,1 53427U 22097AR  23072.89293305 -.00001868  00000-0 -99340-4 0  9998,2 53427  53.2167 335.3952 0001510 131.6181 228.4940 15.08832612 33343,6917.903,95.438,540.813,538.723,0.0
53427.0,STARLINK-4541,PAYLOAD,2023-03-14 02:11:59,15.08833743,0.0001398,53.2168,334.503,120.7362,239.3767,2.9082e-05,1.75e-06,0.0,0 STARLINK-4541,1 53427U 22097AR  23073.09165534  .00000175  00000-0  29082-4 0  9997,2 53427  53.2168 334.5030 0001398 120.7362 239.3767 15.08833743 33856,6917.9,95.438,540.732,538.797,0.0
53427.0,STARLINK-4541,PAYLOAD,2023-03-15 03:38:08,15.08879798,0.0001177,53.2156,329.7412,126.9468,233.1632,0.0016676,0.0002638,0.0,0 STARLINK-4541,1 53427U 22097AR  23074.15148397  .00026380  00000-0  16676-2 0  9992,2 53427  53.2156 329.7412 0001177 126.9468 233.1632 15.08879798 33531,6917.759,95.435,540.438,538.81,0.0
53427.0,STARLINK-4541,PAYLOAD,2023-03-15 05:13:31,15.08881299,0.0001081,53.2154,329.443,115.272,244.8384,0.0016449,0.00026017,0.0,0 STARLINK-4541,1 53427U 22097AR  23074.21772273  .00026017  00000-0  16449-2 0  9990,2 53427  53.2154 329.4430 0001081 115.2720 244.8384 15.08881299 34029,6917.754,95.435,540.367,538.871,0.0
53427.0,STARLINK-4541,PAYLOAD,2023-03-15 21:07:23,15.08843044,0.0001074,53.2164,326.47,95.4542,264.6573,3.1882e-05,2.2e-06,0.0,0 STARLINK-4541,1 53427U 22097AR  23074.88012968  .00000220  00000-0  31882-4 0  9999,2 53427  53.2164 326.4700 0001074  95.4542 264.6573 15.08843044 34127,6917.871,95.437,540.479,538.993,0.0
53427.0,STARLINK-4541,PAYLOAD,2023-03-16 01:53:32,15.08856379,0.0001305,53.2164,325.5778,102.3288,257.7851,0.0020019,0.0003173,0.0,0 STARLINK-4541,1 53427U 22097AR  23075.07884800  .00031730  00000-0  20019-2 0  9991,2 53427  53.2164 325.5778 0001305 102.3288 257.7851 15.08856379 33670,6917.83,95.437,540.598,538.793,0.0
53427.0,STARLINK-4541,PAYLOAD,2023-03-16 22:33:34,15.08817594,0.0001137,53.2159,321.7118,79.6169,280.4952,0.0008509,0.00013272,0.0,0 STARLINK-4541,1 53427U 22097AR  23075.93998653  .00013272  00000-0  85090-3 0  9990,2 53427  53.2159 321.7118 0001137  79.6169 280.4952 15.08817594 33803,6917.949,95.439,540.6,539.027,0.0
53427.0,STARLINK-4541,PAYLOAD,2023-03-17 09:41:17,15.08829431,0.0001363,53.2161,319.63,88.9236,271.1912,0.00075426,0.00011733,0.0,0 STARLINK-4541,1 53427U 22097AR  23076.40367068  .00011733  00000-0  75426-3 0  9995,2 53427  53.2161 319.6300 0001363  88.9236 271.1912 15.08829431 34351,6917.913,95.438,540.721,538.835,0.0
